DMSP 5D-3 F16 (USA 172) 
1 28054U 03048A   26112.79983296  .00000021  00000+0  34600-4 0  9998
2 28054  98.9936 136.2510 0006111 309.9815 223.3329 14.14476080161655
METEOSAT-9 (MSG-2)      
1 28912U 05049B   26112.76745086  .00000116  00000+0  00000+0 0  9991
2 28912   9.2391  54.7005 0000304 334.0382 143.9930  1.00272703  6444
DMSP 5D-3 F17 (USA 191) 
1 29522U 06050A   26112.80248119  .00000047  00000+0  46535-4 0  9993
2 29522  98.7398 120.5031 0009459 208.2649 151.8012 14.14981556  4596
FENGYUN 3A              
1 32958U 08026A   26112.57651390  .00000065  00000+0  51512-4 0  9999
2 32958  98.6851  54.4607 0007671 291.7159  68.3201 14.19558697927516
GOES 14                 
1 35491U 09033A   26112.58601609 -.00000038  00000+0  00000+0 0  9994
2 35491   1.5478  83.6733 0001604 304.7990 206.0822  1.00115468  6037
DMSP 5D-3 F18 (USA 210) 
1 35951U 09057A   26112.84059833  .00000228  00000+0  14094-3 0  9998
2 35951  98.9015  93.7403 0012037  51.9636 308.2622 14.14863702851762
EWS-G2 (GOES 15)        
1 36411U 10008A   26112.85098663  .00000012  00000+0  00000+0 0  9992
2 36411   1.1316  83.8534 0003677  24.2444 112.4173  1.00271788 59088
COMS 1                  
1 36744U 10032A   26112.83032226 -.00000353  00000+0  00000+0 0  9998
2 36744   4.6638  76.0963 0000924 308.7511 253.0920  1.00270589 50530
FENGYUN 3B              
1 37214U 10059A   26112.88207985 -.00000219  00000+0 -89649-4 0  9994
2 37214  98.9670 158.6480 0021839 346.5475 186.4344 14.14827149799609
SUOMI NPP               
1 37849U 11061A   26112.86776713  .00000075  00000+0  56720-4 0  9992
2 37849  98.7922  54.1324 0002692 109.2388 250.9079 14.19504977750594
METEOSAT-10 (MSG-3)     
1 38552U 12035B   26112.21593454 -.00000012  00000+0  00000+0 0  9991
2 38552   4.5410  61.2500 0002218 290.9039 296.0956  1.00275542 50297
METOP-B                 
1 38771U 12049A   26112.79148653  .00000067  00000+0  50444-4 0  9990
2 38771  98.6555 165.3828 0003287 131.3845 228.7616 14.21432055705397
INSAT-3D                
1 39216U 13038B   26112.73378177 -.00000348  00000+0  00000+0 0  9995
2 39216   1.7840  83.1998 0001518 271.5453 249.7147  1.00273504 46526
FENGYUN 3C              
1 39260U 13052A   26112.91813278  .00000062  00000+0  52713-4 0  9991
2 39260  98.4948  89.3431 0014608 177.8691 182.2549 14.15741521650744
METEOR-M 2              
1 40069U 14037A   26112.88907737 -.00000125  00000+0 -38041-4 0  9994
2 40069  98.5090  90.5983 0005361 185.9054 174.2062 14.21444544611466
HIMAWARI-8              
1 40267U 14060A   26112.66929243 -.00000286  00000+0  00000+0 0  9998
2 40267   0.0398  72.4694 0000760 291.7267 228.1403  1.00272252 42209
FENGYUN 2G              
1 40367U 14090A   26112.85890627 -.00000312  00000+0  00000+0 0  9996
2 40367   5.5005  73.4642 0003058 147.2777  39.1494  1.00273928 41449
METEOSAT-11 (MSG-4)     
1 40732U 15034A   26112.28916815  .00000056  00000+0  00000+0 0  9990
2 40732   3.0621  71.4014 0001640 344.2375 268.5224  1.00263154  6654
ELEKTRO-L 2             
1 41105U 15074A   26112.51329046 -.00000125  00000+0  00000+0 0  9997
2 41105   6.5560  71.1893 0002339 252.5357  57.1367  1.00270530 37940
INSAT-3DR               
1 41752U 16054A   26112.77336580 -.00000087  00000+0  00000+0 0  9990
2 41752   0.1041  85.8174 0011902 195.3711 282.0469  1.00270669 35268
HIMAWARI-9              
1 41836U 16064A   26112.27753132 -.00000284  00000+0  00000+0 0  9994
2 41836   0.0238 163.5295 0001113 248.7551  38.7115  1.00270424 34648
GOES 16                 
1 41866U 16071A   26112.61947867 -.00000101  00000+0  00000+0 0  9991
2 41866   0.2012  85.1643 0001655 241.9222   1.8988  1.00270760 34541
FENGYUN 4A              
1 41882U 16077A   26112.73702399 -.00000366  00000+0  00000+0 0  9990
2 41882   2.1827  80.8188 0008233 141.2359  17.8294  1.00268349 34370
CYGFM05                 
1 41884U 16078A   26112.79029906  .00018424  00000+0  27320-3 0  9996
2 41884  34.9574 266.7393 0007674 346.8533  13.1989 15.54249128520123
CYGFM04                 
1 41885U 16078B   26112.72922125  .00021128  00000+0  26790-3 0  9990
2 41885  34.9324 237.4278 0006361  29.8260 330.2827 15.58442332520334
CYGFM02                 
1 41886U 16078C   26112.75861475  .00023208  00000+0  26900-3 0  9998
2 41886  34.9406 233.1718 0007443  31.6459 328.4713 15.60771061520498
CYGFM01                 
1 41887U 16078D   26112.73756110  .00018512  00000+0  26857-3 0  9999
2 41887  34.9404 268.5716 0007372 340.1802  19.8634 15.54844776520061
CYGFM08                 
1 41888U 16078E   26112.78549669  .00021157  00000+0  28133-3 0  9992
2 41888  34.9432 249.1870 0008489  10.8945 349.1962 15.57161757520324
CYGFM07                 
1 41890U 16078G   26112.74792319  .00019543  00000+0  25937-3 0  9998
2 41890  34.9445 237.8219 0006776  29.2629 330.8474 15.57241187520345
CYGFM03                 
1 41891U 16078H   26112.71887655  .00019144  00000+0  25409-3 0  9995
2 41891  34.9402 239.9729 0006175  15.4255 344.6657 15.57246449520312
FENGYUN 3D              
1 43010U 17072A   26112.89488015  .00000081  00000+0  60148-4 0  9991
2 43010  99.0101  86.3309 0001238 162.6370 197.4847 14.19727439437144
NOAA 20 (JPSS-1)        
1 43013U 17073A   26112.81096956  .00000058  00000+0  48272-4 0  9994
2 43013  98.7742  52.7739 0002145  77.3890 282.7525 14.19546757436619
GOES 17                 
1 43226U 18022A   26112.50322366 -.00000192  00000+0  00000+0 0  9990
2 43226   0.7959  86.4530 0000724 257.0724 318.7055  1.00271602 29868
FENGYUN 2H              
1 43491U 18050A   26112.58811626 -.00000138  00000+0  00000+0 0  9995
2 43491   2.8886  79.6888 0001860 160.3687 261.5259  1.00274454 28880
METOP-C                 
1 43689U 18087A   26112.74331491  .00000060  00000+0  47174-4 0  9990
2 43689  98.6685 173.3494 0001020  43.5544 316.5714 14.21510636386950
GEO-KOMPSAT-2A          
1 43823U 18100A   26111.66569328 -.00000350  00000+0  00000+0 0  9993
2 43823   0.0592  64.1910 0001775 359.8816 153.5806  1.00271457 27069
METEOR-M2 2             
1 44387U 19038A   26112.89038377 -.00000216  00000+0 -73600-4 0  9994
2 44387  98.9136  99.3680 0001603 133.3508 226.7804 14.24348650353425
ARKTIKA-M 1             
1 47719U 21016A   26112.16715124 -.00000113  00000+0  00000+0 0  9991
2 47719  63.2240  65.6995 7266011 269.6768  14.9602  2.00609943 37661
FENGYUN 3E              
1 49008U 21062A   26112.81458150 -.00000270  00000+0 -10655-3 0  9996
2 49008  98.7512 116.8390 0000576 211.9309 148.1832 14.19898241248723
GOES 18                 
1 51850U 22021A   26112.54530273  .00000087  00000+0  00000+0 0  9990
2 51850   0.0407  65.6313 0000218  15.5580 188.7169  1.00270833  6034
NOAA 21 (JPSS-2)        
1 54234U 22150A   26112.63377264  .00000049  00000+0  44037-4 0  9992
2 54234  98.7030  52.3651 0002007  29.8982 330.2308 14.19554824178666
METEOSAT-12 (MTG-I1)    
1 54743U 22170C   26112.57234286 -.00000018  00000+0  00000+0 0  9992
2 54743   0.7195  21.6472 0001159 321.4011  73.3342  1.00268324 12424
TIANMU-1 03             
1 55973U 23039A   26112.85628691  .00011216  00000+0  23437-3 0  9995
2 55973  97.5224 284.7332 0001752 305.2092  54.8993 15.45676196172283
TIANMU-1 04             
1 55974U 23039B   26112.80138272  .00011321  00000+0  23222-3 0  9991
2 55974  97.5159 283.8293 0002314 295.1801  64.9208 15.46216181172283
TIANMU-1 05             
1 55975U 23039C   26112.83460756  .00011302  00000+0  23666-3 0  9991
2 55975  97.5204 284.3458 0001816 344.4317  15.6876 15.45614164172264
TIANMU-1 06             
1 55976U 23039D   26112.80177105  .00011169  00000+0  22968-3 0  9997
2 55976  97.5214 284.8934 0002007 330.8091  29.3045 15.46145299172282
FENGYUN 3G              
1 56232U 23055A   26112.84237801  .00020032  00000+0  33061-3 0  9990
2 56232  49.9931 271.4241 0005845 307.0983  52.9449 15.52194812171402
METEOR-M2 3             
1 57166U 23091A   26112.87222755 -.00000012  00000+0  13598-4 0  9993
2 57166  98.6128 168.9695 0003455 348.7385  11.3716 14.24041901146646
TIANMU-1 07             
1 57399U 23101A   26112.88286061  .00000208  00000+0  98692-5 0  9999
2 57399  97.2641 164.8323 0001825  21.9612 338.1707 15.29207953153199
TIANMU-1 08             
1 57400U 23101B   26112.85043123  .00005750  00000+0  20528-3 0  9997
2 57400  97.2628 164.5776 0002620 337.7699  22.3428 15.29241509153189
TIANMU-1 09             
1 57401U 23101C   26112.83416285  .00004689  00000+0  16784-3 0  9998
2 57401  97.2587 164.0078 0002376  17.7219 342.4104 15.29245511153189
TIANMU-1 10             
1 57402U 23101D   26112.86694743  .00004626  00000+0  16545-3 0  9995
2 57402  97.2665 165.0323 0003260 354.5825   5.5380 15.29280882153182
FENGYUN 3F              
1 57490U 23111A   26112.79969924  .00000026  00000+0  32724-4 0  9999
2 57490  98.6863 183.8337 0000847 109.6916 250.4352 14.19928894141003
ARKTIKA-M 2             
1 58584U 23198A   26110.92958554  .00000217  00000+0  00000+0 0  9998
2 58584  63.2192 160.7194 6953303 267.0904  18.4710  2.00586979 17173
TIANMU-1 11             
1 58645U 23205A   26112.86616912  .00003966  00000+0  15501-3 0  9999
2 58645  97.3491 135.3059 0008695 187.5443 172.5667 15.26409419129084
TIANMU-1 12             
1 58646U 23205B   26112.83489946  .00004125  00000+0  16142-3 0  9992
2 58646  97.3481 135.0431 0007584 168.4442 191.6972 15.26353348129066
TIANMU-1 13             
1 58647U 23205C   26112.86431362  .00004200  00000+0  16402-3 0  9998
2 58647  97.3508 135.3303 0008471 152.1852 207.9841 15.26406192129061
TIANMU-1 14             
1 58648U 23205D   26112.84963912  .00004133  00000+0  16154-3 0  9997
2 58648  97.3444 134.5451 0009034 157.0431 203.1213 15.26378487129065
TIANMU-1 19             
1 58660U 23208A   26112.80203252  .00006630  00000+0  22602-3 0  9993
2 58660  97.4436 228.8777 0006131 142.2539 217.9132 15.30686983128856
TIANMU-1 20             
1 58661U 23208B   26112.88286050  .00006379  00000+0  20965-3 0  9999
2 58661  97.4376 229.5370 0008083 152.1068 208.0609 15.31875421128951
TIANMU-1 21             
1 58662U 23208C   26112.88646845  .00007700  00000+0  23606-3 0  9996
2 58662  97.4435 231.9895 0008101 147.0499 213.1250 15.34033110129087
TIANMU-1 22             
1 58663U 23208D   26112.83170897  .00005900  00000+0  20432-3 0  9995
2 58663  97.4431 228.8875 0004397 158.4048 201.7379 15.30236882128863
TIANMU-1 15             
1 58700U 24004A   26112.84674424  .00004276  00000+0  16702-3 0  9998
2 58700  97.4681 299.0474 0007258 171.9368 188.1988 15.26414875127331
TIANMU-1 16             
1 58701U 24004B   26112.82917177  .00004397  00000+0  17151-3 0  9995
2 58701  97.4627 298.3224 0005659 171.5522 188.5813 15.26453277127338
TIANMU-1 17             
1 58702U 24004C   26112.87841856  .00003925  00000+0  15409-3 0  9991
2 58702  97.4657 298.8396 0005439 176.2073 183.9207 15.26301406127338
TIANMU-1 18             
1 58703U 24004D   26112.86302061  .00004366  00000+0  17053-3 0  9998
2 58703  97.4674 299.0476 0004336 166.2509 193.8848 15.26417121127331
INSAT-3DS               
1 58990U 24033A   26112.72822684 -.00000166  00000+0  00000+0 0  9996
2 58990   0.0814  85.8784 0001837 293.6923 175.4557  1.00270802 46519
METEOR-M2 4             
1 59051U 24039A   26112.89450346  .00000008  00000+0  23300-4 0  9998
2 59051  98.6971  72.9010 0006637 339.2269  20.8638 14.22423404111407
GOES 19                 
1 60133U 24119A   26112.52058881 -.00000258  00000+0  00000+0 0  9993
2 60133   0.0027 254.3954 0000371 186.3513 242.0527  1.00270973  6405
FENGYUN 3H              
1 65815U 25219A   26112.72506637  .00000048  00000+0  42866-4 0  9993
2 65815  98.6736  54.5827 0000778 102.4454 257.6809 14.19943103 29518
